SL-3 R/B                
1 13403U 82079B   25342.60895656  .00008183  00000+0  33820-3 0  9996
2 13403  81.1474 300.5295 0026922 112.2899 248.1193 15.23515369363825
SL-14 R/B               
1 13553U 82092B   25342.64197718  .00000956  00000+0  10489-3 0  9991
2 13553  82.5688 226.5439 0018970 241.6396 180.1684 14.86549985315403
SL-3 R/B                
1 13819U 83010B   25342.62268326  .00018107  00000+0  40368-3 0  9995
2 13819  81.1042 113.6436 0017390   5.4645 354.6784 15.43290364343888
SL-3 R/B                
1 14208U 83075B   25342.55296709  .00013579  00000+0  38638-3 0  9992
2 14208  97.6106 338.8958 0022241 190.4543 169.6241 15.36006871316159
COSMOS 1536             
1 14699U 84013A   25342.59998481  .00007990  00000+0  34325-3 0  9998
2 14699  82.5453 198.2700 0013365 241.6097 118.3792 15.22449594258755
SL-14 R/B               
1 14820U 84027B   25342.44764276  .00001019  00000+0  11411-3 0  9993
2 14820  82.5409 330.5816 0016398 276.4372  83.4977 14.85867797234086
SL-8 R/B                
1 15483U 85006B   25342.65487534  .00000541  00000+0  18823-3 0  9992
2 15483  74.0466  68.6501 0018500   1.9238 105.2372 14.37717971140948
SL-12 R/B(2)            
1 15772U 85042D   25342.61731428  .00000343  00000+0  17558-3 0  9997
2 15772  71.1085 280.1287 0037680 267.5734 265.5196 14.21950284101442
SL-14 R/B               
1 15945U 85069B   25342.39287068  .00001155  00000+0  12805-3 0  9991
2 15945  82.5264 110.7892 0019918 131.9999 228.2918 14.86316944159272
SL-16 R/B               
1 16182U 85097B   25342.41044405  .00000093  00000+0  70625-4 0  9990
2 16182  71.0029 332.7177 0006414  17.7213  89.1536 14.16581970 74303
SL-14 R/B               
1 16496U 86006B   25342.52691542  .00001259  00000+0  13182-3 0  9990
2 16496  82.5265 345.5156 0075812 213.9418 145.6937 14.86664171135666
COSMOS 1743             
1 16719U 86034A   25342.59242267  .00033442  00000+0  55733-3 0  9999
2 16719  82.5345 168.8985 0004698 271.4809  88.5905 15.51823976166090
