CCSDS_OMM_VERS = 2.0
CREATION_DATE  = 
ORIGINATOR     = 

OBJECT_NAME    = SL-3 R/B
OBJECT_ID      = 1982-079B
CENTER_NAME    = EARTH
REF_FRAME      = TEME
TIME_SYSTEM    = UTC
MEAN_ELEMENT_THEORY = SGP/SGP4

EPOCH          = 2025-12-08T14:36:53.846784
MEAN_MOTION    = 15.23515369
ECCENTRICITY   = .00269227
INCLINATION    = 81.1474
RA_OF_ASC_NODE = 300.5295
ARG_OF_PERICENTER = 112.2899
MEAN_ANOMALY   = 248.1193

EPHEMERIS_TYPE = 0
CLASSIFICATION_TYPE = U
NORAD_CAT_ID   = 13403
ELEMENT_SET_NO = 999
REV_AT_EPOCH   = 36382
BSTAR          = .3382002E-3
MEAN_MOTION_DOT = .8183E-4
MEAN_MOTION_DDOT = 0

CCSDS_OMM_VERS = 2.0
CREATION_DATE  = 
ORIGINATOR     = 

OBJECT_NAME    = SL-14 R/B
OBJECT_ID      = 1982-092B
CENTER_NAME    = EARTH
REF_FRAME      = TEME
TIME_SYSTEM    = UTC
MEAN_ELEMENT_THEORY = SGP/SGP4

EPOCH          = 2025-12-08T15:24:26.828352
MEAN_MOTION    = 14.86549985
ECCENTRICITY   = .00189708
INCLINATION    = 82.5688
RA_OF_ASC_NODE = 226.5439
ARG_OF_PERICENTER = 241.6396
MEAN_ANOMALY   = 180.1684

EPHEMERIS_TYPE = 0
CLASSIFICATION_TYPE = U
NORAD_CAT_ID   = 13553
ELEMENT_SET_NO = 999
REV_AT_EPOCH   = 31540
BSTAR          = .10489389E-3
MEAN_MOTION_DOT = .956E-5
MEAN_MOTION_DDOT = 0

CCSDS_OMM_VERS = 2.0
CREATION_DATE  = 
ORIGINATOR     = 

OBJECT_NAME    = SL-3 R/B
OBJECT_ID      = 1983-010B
CENTER_NAME    = EARTH
REF_FRAME      = TEME
TIME_SYSTEM    = UTC
MEAN_ELEMENT_THEORY = SGP/SGP4

EPOCH          = 2025-12-08T14:56:39.833664
MEAN_MOTION    = 15.43290364
ECCENTRICITY   = .00173902
INCLINATION    = 81.1042
RA_OF_ASC_NODE = 113.6436
ARG_OF_PERICENTER = 5.4645
MEAN_ANOMALY   = 354.6784

EPHEMERIS_TYPE = 0
CLASSIFICATION_TYPE = U
NORAD_CAT_ID   = 13819
ELEMENT_SET_NO = 999
REV_AT_EPOCH   = 34388
BSTAR          = .40367806E-3
MEAN_MOTION_DOT = .18107E-3
MEAN_MOTION_DDOT = 0

CCSDS_OMM_VERS = 2.0
CREATION_DATE  = 
ORIGINATOR     = 

OBJECT_NAME    = SL-3 R/B
OBJECT_ID      = 1983-075B
CENTER_NAME    = EARTH
REF_FRAME      = TEME
TIME_SYSTEM    = UTC
MEAN_ELEMENT_THEORY = SGP/SGP4

EPOCH          = 2025-12-08T13:16:16.356576
MEAN_MOTION    = 15.36006871
ECCENTRICITY   = .00222418
INCLINATION    = 97.6106
RA_OF_ASC_NODE = 338.8958
ARG_OF_PERICENTER = 190.4543
MEAN_ANOMALY   = 169.6241

EPHEMERIS_TYPE = 0
CLASSIFICATION_TYPE = U
NORAD_CAT_ID   = 14208
ELEMENT_SET_NO = 999
REV_AT_EPOCH   = 31615
BSTAR          = .3863841E-3
MEAN_MOTION_DOT = .13579E-3
MEAN_MOTION_DDOT = 0

CCSDS_OMM_VERS = 2.0
CREATION_DATE  = 
ORIGINATOR     = 

OBJECT_NAME    = COSMOS 1536
OBJECT_ID      = 1984-013A
CENTER_NAME    = EARTH
REF_FRAME      = TEME
TIME_SYSTEM    = UTC
MEAN_ELEMENT_THEORY = SGP/SGP4

EPOCH          = 2025-12-08T14:23:58.687584
MEAN_MOTION    = 15.22449594
ECCENTRICITY   = .00133659
INCLINATION    = 82.5453
RA_OF_ASC_NODE = 198.2700
ARG_OF_PERICENTER = 241.6097
MEAN_ANOMALY   = 118.3792

EPHEMERIS_TYPE = 0
CLASSIFICATION_TYPE = U
NORAD_CAT_ID   = 14699
ELEMENT_SET_NO = 999
REV_AT_EPOCH   = 25875
BSTAR          = .34324653E-3
MEAN_MOTION_DOT = .799E-4
MEAN_MOTION_DDOT = 0

CCSDS_OMM_VERS = 2.0
CREATION_DATE  = 
ORIGINATOR     = 

OBJECT_NAME    = SL-14 R/B
OBJECT_ID      = 1984-027B
CENTER_NAME    = EARTH
REF_FRAME      = TEME
TIME_SYSTEM    = UTC
MEAN_ELEMENT_THEORY = SGP/SGP4

EPOCH          = 2025-12-08T10:44:36.334464
MEAN_MOTION    = 14.85867797
ECCENTRICITY   = .00163988
INCLINATION    = 82.5409
RA_OF_ASC_NODE = 330.5816
ARG_OF_PERICENTER = 276.4372
MEAN_ANOMALY   = 83.4977

EPHEMERIS_TYPE = 0
CLASSIFICATION_TYPE = U
NORAD_CAT_ID   = 14820
ELEMENT_SET_NO = 999
REV_AT_EPOCH   = 23408
BSTAR          = .1141071E-3
MEAN_MOTION_DOT = .1019E-4
MEAN_MOTION_DDOT = 0

CCSDS_OMM_VERS = 2.0
CREATION_DATE  = 
ORIGINATOR     = 

OBJECT_NAME    = SL-8 R/B
OBJECT_ID      = 1985-006B
CENTER_NAME    = EARTH
REF_FRAME      = TEME
TIME_SYSTEM    = UTC
MEAN_ELEMENT_THEORY = SGP/SGP4

EPOCH          = 2025-12-08T15:43:01.229376
MEAN_MOTION    = 14.37717971
ECCENTRICITY   = .00185006
INCLINATION    = 74.0466
RA_OF_ASC_NODE = 68.6501
ARG_OF_PERICENTER = 1.9238
MEAN_ANOMALY   = 105.2372

EPHEMERIS_TYPE = 0
CLASSIFICATION_TYPE = U
NORAD_CAT_ID   = 15483
ELEMENT_SET_NO = 999
REV_AT_EPOCH   = 14094
BSTAR          = .18822524E-3
MEAN_MOTION_DOT = .541E-5
MEAN_MOTION_DDOT = 0

CCSDS_OMM_VERS = 2.0
CREATION_DATE  = 
ORIGINATOR     = 

OBJECT_NAME    = SL-12 R/B(2)
OBJECT_ID      = 1985-042D
CENTER_NAME    = EARTH
REF_FRAME      = TEME
TIME_SYSTEM    = UTC
MEAN_ELEMENT_THEORY = SGP/SGP4

EPOCH          = 2025-12-08T14:48:55.953792
MEAN_MOTION    = 14.21950284
ECCENTRICITY   = .003768
INCLINATION    = 71.1085
RA_OF_ASC_NODE = 280.1287
ARG_OF_PERICENTER = 267.5734
MEAN_ANOMALY   = 265.5196

EPHEMERIS_TYPE = 0
CLASSIFICATION_TYPE = U
NORAD_CAT_ID   = 15772
ELEMENT_SET_NO = 999
REV_AT_EPOCH   = 10144
BSTAR          = .17557689E-3
MEAN_MOTION_DOT = .343E-5
MEAN_MOTION_DDOT = 0

CCSDS_OMM_VERS = 2.0
CREATION_DATE  = 
ORIGINATOR     = 

OBJECT_NAME    = SL-14 R/B
OBJECT_ID      = 1985-069B
CENTER_NAME    = EARTH
REF_FRAME      = TEME
TIME_SYSTEM    = UTC
MEAN_ELEMENT_THEORY = SGP/SGP4

EPOCH          = 2025-12-08T09:25:44.026752
MEAN_MOTION    = 14.86316944
ECCENTRICITY   = .0019918
INCLINATION    = 82.5264
RA_OF_ASC_NODE = 110.7892
ARG_OF_PERICENTER = 131.9999
MEAN_ANOMALY   = 228.2918

EPHEMERIS_TYPE = 0
CLASSIFICATION_TYPE = U
NORAD_CAT_ID   = 15945
ELEMENT_SET_NO = 999
REV_AT_EPOCH   = 15927
BSTAR          = .12805176E-3
MEAN_MOTION_DOT = .1155E-4
MEAN_MOTION_DDOT = 0

CCSDS_OMM_VERS = 2.0
CREATION_DATE  = 
ORIGINATOR     = 

OBJECT_NAME    = SL-16 R/B
OBJECT_ID      = 1985-097B
CENTER_NAME    = EARTH
REF_FRAME      = TEME
TIME_SYSTEM    = UTC
MEAN_ELEMENT_THEORY = SGP/SGP4

EPOCH          = 2025-12-08T09:51:02.365920
MEAN_MOTION    = 14.16581970
ECCENTRICITY   = .00064149
INCLINATION    = 71.0029
RA_OF_ASC_NODE = 332.7177
ARG_OF_PERICENTER = 17.7213
MEAN_ANOMALY   = 89.1536

EPHEMERIS_TYPE = 0
CLASSIFICATION_TYPE = U
NORAD_CAT_ID   = 16182
ELEMENT_SET_NO = 999
REV_AT_EPOCH   = 7430
BSTAR          = .70624552E-4
MEAN_MOTION_DOT = .93E-6
MEAN_MOTION_DDOT = 0

CCSDS_OMM_VERS = 2.0
CREATION_DATE  = 
ORIGINATOR     = 

OBJECT_NAME    = SL-14 R/B
OBJECT_ID      = 1986-006B
CENTER_NAME    = EARTH
REF_FRAME      = TEME
TIME_SYSTEM    = UTC
MEAN_ELEMENT_THEORY = SGP/SGP4

EPOCH          = 2025-12-08T12:38:45.492288
MEAN_MOTION    = 14.86664171
ECCENTRICITY   = .00758127
INCLINATION    = 82.5265
RA_OF_ASC_NODE = 345.5156
ARG_OF_PERICENTER = 213.9418
MEAN_ANOMALY   = 145.6937

EPHEMERIS_TYPE = 0
CLASSIFICATION_TYPE = U
NORAD_CAT_ID   = 16496
ELEMENT_SET_NO = 999
REV_AT_EPOCH   = 13566
BSTAR          = .13182158E-3
MEAN_MOTION_DOT = .1259E-4
MEAN_MOTION_DDOT = 0

CCSDS_OMM_VERS = 2.0
CREATION_DATE  = 
ORIGINATOR     = 

OBJECT_NAME    = COSMOS 1743
OBJECT_ID      = 1986-034A
CENTER_NAME    = EARTH
REF_FRAME      = TEME
TIME_SYSTEM    = UTC
MEAN_ELEMENT_THEORY = SGP/SGP4

EPOCH          = 2025-12-08T14:13:05.318688
MEAN_MOTION    = 15.51823976
ECCENTRICITY   = .00046983
INCLINATION    = 82.5345
RA_OF_ASC_NODE = 168.8985
ARG_OF_PERICENTER = 271.4809
MEAN_ANOMALY   = 88.5905

EPHEMERIS_TYPE = 0
CLASSIFICATION_TYPE = U
NORAD_CAT_ID   = 16719
ELEMENT_SET_NO = 999
REV_AT_EPOCH   = 16609
BSTAR          = .5573311E-3
MEAN_MOTION_DOT = .33442E-3
MEAN_MOTION_DDOT = 0

